<?xml version="1.0" encoding="UTF-8"?>
<databrowser>
  <title>Voltage</title>
  <show_toolbar>true</show_toolbar>
  <grid>true</grid>
  <update_period>3.0</update_period>
  <scroll_step>5</scroll_step>
  <scroll>true</scroll>
  <start>-3 minutes</start>
  <end>now</end>
  <archive_rescale>STAGGER</archive_rescale>
  <foreground>
    <red>0</red>
    <green>0</green>
    <blue>0</blue>
  </foreground>
  <background>
    <red>242</red>
    <green>242</green>
    <blue>242</blue>
  </background>
  <title_font>Liberation Sans|20|1</title_font>
  <label_font>Liberation Sans|14|1</label_font>
  <scale_font>Liberation Sans|12|0</scale_font>
  <legend_font>Liberation Sans|14|0</legend_font>
  <axes>
    <axis>
      <visible>true</visible>
      <name>aV</name>
      <use_axis_name>false</use_axis_name>
      <use_trace_names>true</use_trace_names>
      <right>false</right>
      <color>
        <red>0</red>
        <green>0</green>
        <blue>0</blue>
      </color>
      <min>-1.0</min>
      <max>110.0</max>
      <grid>false</grid>
      <autoscale>false</autoscale>
      <log_scale>false</log_scale>
    </axis>
    <axis>
      <visible>true</visible>
      <name>aI</name>
      <use_axis_name>false</use_axis_name>
      <use_trace_names>true</use_trace_names>
      <right>false</right>
      <color>
        <red>0</red>
        <green>0</green>
        <blue>0</blue>
      </color>
      <min>0.0</min>
      <max>0.1</max>
      <grid>false</grid>
      <autoscale>false</autoscale>
      <log_scale>false</log_scale>
    </axis>
  </axes>
  <annotations>
  </annotations>
  <pvlist>
    <pv>
      <display_name>SFRS:$(CHAMBER):MUSIC1:FC$(FIELD_CAGE):HV_V_RBV</display_name>
      <visible>true</visible>
      <name>SFRS:FMF1:MUSIC1:FC1:HV_V_RBV</name>
      <axis>0</axis>
      <color>
        <red>51</red>
        <green>102</green>
        <blue>102</blue>
      </color>
      <trace_type>AREA</trace_type>
      <linewidth>2</linewidth>
      <line_style>DASH</line_style>
      <point_type>NONE</point_type>
      <point_size>2</point_size>
      <waveform_index>0</waveform_index>
      <period>0.0</period>
      <ring_size>5000</ring_size>
      <request>OPTIMIZED</request>
    </pv>
    <pv>
      <display_name>SFRS:$(CHAMBER):MUSIC1:FC$(FIELD_CAGE):HV_V_SET</display_name>
      <visible>true</visible>
      <name>SFRS:$(CHAMBER):MUSIC1:FC$(FIELD_CAGE):HV_V_SET</name>
      <axis>0</axis>
      <color>
        <red>128</red>
        <green>179</green>
        <blue>179</blue>
      </color>
      <trace_type>AREA</trace_type>
      <linewidth>2</linewidth>
      <line_style>SOLID</line_style>
      <point_type>NONE</point_type>
      <point_size>2</point_size>
      <waveform_index>0</waveform_index>
      <period>0.0</period>
      <ring_size>5000</ring_size>
      <request>OPTIMIZED</request>
      <archive>
        <name>SFRS Archiver</name>
        <url>pbraw://localhost:17665/retrieval</url>
        <key>1</key>
      </archive>
    </pv>
    <pv>
      <display_name>SFRS:$(CHAMBER):MUSIC1:FC$(FIELD_CAGE):HV_I_RBV</display_name>
      <visible>true</visible>
      <name>SFRS:$(CHAMBER):MUSIC1:FC$(FIELD_CAGE):HV_I_RBV</name>
      <axis>1</axis>
      <color>
        <red>179</red>
        <green>26</green>
        <blue>26</blue>
      </color>
      <trace_type>AREA</trace_type>
      <linewidth>2</linewidth>
      <line_style>SOLID</line_style>
      <point_type>NONE</point_type>
      <point_size>2</point_size>
      <waveform_index>0</waveform_index>
      <period>0.0</period>
      <ring_size>5000</ring_size>
      <request>OPTIMIZED</request>
      <archive>
        <name>SFRS Archiver</name>
        <url>pbraw://localhost:17665/retrieval</url>
        <key>1</key>
      </archive>
    </pv>
  </pvlist>
</databrowser>
